start=new Date('2022-04-26T00:00:00.000Z').valueOf();
sats=[{"OBJECT_TYPE":"PAYLOAD","EPHEMERIS_TYPE":"0","APOAPSIS":"548.225","MEAN_MOTION":"15.06384433","CLASSIFICATION_TYPE":"U","SITE":"AFETR","FILE":"3415932","TLE_LINE1":"1 48562U 21041K   22115.76343578 -.00001046  00000-0 -51361-4 0  9990","MEAN_ANOMALY":"281.0068","OBJECT_NAME":"STARLINK-2187","TIME_SYSTEM":"UTC","MEAN_MOTION_DOT":"-0.00001046","CENTER_NAME":"EARTH","DECAY_DATE":null,"PERIAPSIS":"546.298","RA_OF_ASC_NODE":"358.9835","TLE_LINE2":"2 48562  53.0548 358.9835 0001391  79.1078 281.0068 15.06384433 52491","GP_ID":"202002278","RCS_SIZE":"LARGE","NORAD_CAT_ID":"48562","OBJECT_ID":"2021-041K","SEMIMAJOR_AXIS":"6925.396","REV_AT_EPOCH":"5249","PERIOD":"95.593","ARG_OF_PERICENTER":"79.1078","INCLINATION":"53.0548","REF_FRAME":"TEME","LAUNCH_DATE":"2021-05-15","BSTAR":"-0.00005136100000","EPOCH":"2022-04-25T18:19:20.851392","ECCENTRICITY":"0.00013910","ELEMENT_SET_NO":"999","COUNTRY_CODE":"US","MEAN_ELEMENT_THEORY":"SGP4","MEAN_MOTION_DDOT":"0.0000000000000"},{"PERIOD":"95.592","INCLINATION":"53.0544","ARG_OF_PERICENTER":"85.9813","REF_FRAME":"TEME","NORAD_CAT_ID":"48563","OBJECT_ID":"2021-041L","SEMIMAJOR_AXIS":"6925.360","REV_AT_EPOCH":"5210","COUNTRY_CODE":"US","MEAN_ELEMENT_THEORY":"SGP4","MEAN_MOTION_DDOT":"0.0000000000000","BSTAR":"0.00001986100000","LAUNCH_DATE":"2021-05-15","EPOCH":"2022-04-25T20:21:24.729696","ECCENTRICITY":"0.00014850","ELEMENT_SET_NO":"999","APOAPSIS":"548.253","MEAN_MOTION":"15.06396263","CLASSIFICATION_TYPE":"U","SITE":"AFETR","FILE":"3416090","OBJECT_TYPE":"PAYLOAD","EPHEMERIS_TYPE":"0","PERIAPSIS":"546.197","RA_OF_ASC_NODE":"358.6108","GP_ID":"202027451","TLE_LINE2":"2 48563  53.0544 358.6108 0001485  85.9813 274.1345 15.06396263 52107","RCS_SIZE":"LARGE","TLE_LINE1":"1 48563U 21041L   22115.84820289  .00000014  00000-0  19861-4 0  9990","OBJECT_NAME":"STARLINK-2188","MEAN_ANOMALY":"274.1345","MEAN_MOTION_DOT":"0.00000014","TIME_SYSTEM":"UTC","CENTER_NAME":"EARTH","DECAY_DATE":null},{"TLE_LINE2":"2 48564  53.0555 359.2395 0001444  75.0426 285.0723 15.06381408 52083","GP_ID":"202026705","PERIAPSIS":"546.271","RA_OF_ASC_NODE":"359.2395","RCS_SIZE":"LARGE","MEAN_ANOMALY":"285.0723","OBJECT_NAME":"STARLINK-2190","TLE_LINE1":"1 48564U 21041M   22115.70814879 -.00000700  00000-0 -28142-4 0  9990","DECAY_DATE":null,"TIME_SYSTEM":"UTC","MEAN_MOTION_DOT":"-0.00000700","CENTER_NAME":"EARTH","APOAPSIS":"548.271","CLASSIFICATION_TYPE":"U","SITE":"AFETR","FILE":"3416090","MEAN_MOTION":"15.06381408","EPHEMERIS_TYPE":"0","OBJECT_TYPE":"PAYLOAD","MEAN_ELEMENT_THEORY":"SGP4","COUNTRY_CODE":"US","MEAN_MOTION_DDOT":"0.0000000000000","EPOCH":"2022-04-25T16:59:44.055456","LAUNCH_DATE":"2021-05-15","BSTAR":"-0.00002814200000","ELEMENT_SET_NO":"999","ECCENTRICITY":"0.00014440","PERIOD":"95.593","INCLINATION":"53.0555","ARG_OF_PERICENTER":"75.0426","REF_FRAME":"TEME","OBJECT_ID":"2021-041M","NORAD_CAT_ID":"48564","REV_AT_EPOCH":"5208","SEMIMAJOR_AXIS":"6925.406"},{"OBJECT_ID":"2021-041N","NORAD_CAT_ID":"48565","REV_AT_EPOCH":"5210","SEMIMAJOR_AXIS":"6925.378","PERIOD":"95.593","ARG_OF_PERICENTER":"93.2279","INCLINATION":"53.0550","REF_FRAME":"TEME","EPOCH":"2022-04-25T20:05:29.255424","BSTAR":"-0.00010045000000","LAUNCH_DATE":"2021-05-15","ELEMENT_SET_NO":"999","ECCENTRICITY":"0.00017610","MEAN_ELEMENT_THEORY":"SGP4","COUNTRY_CODE":"US","MEAN_MOTION_DDOT":"0.0000000000000","EPHEMERIS_TYPE":"0","OBJECT_TYPE":"PAYLOAD","APOAPSIS":"548.463","CLASSIFICATION_TYPE":"U","SITE":"AFETR","FILE":"3416090","MEAN_MOTION":"15.06390336","MEAN_ANOMALY":"266.8912","OBJECT_NAME":"STARLINK-2191","TLE_LINE1":"1 48565U 21041N   22115.83714416 -.00001777  00000-0 -10045-3 0  9998","DECAY_DATE":null,"TIME_SYSTEM":"UTC","MEAN_MOTION_DOT":"-0.00001777","CENTER_NAME":"EARTH","GP_ID":"202026955","TLE_LINE2":"2 48565  53.0550 358.6580 0001761  93.2279 266.8912 15.06390336 52108","PERIAPSIS":"546.024","RA_OF_ASC_NODE":"358.6580","RCS_SIZE":"LARGE"},{"RA_OF_ASC_NODE":"8.5452","PERIAPSIS":"546.272","TLE_LINE2":"2 48566  53.0553   8.5452 0001431  76.5069 283.6079 15.06383942 51965","GP_ID":"202027702","RCS_SIZE":"MEDIUM","TLE_LINE1":"1 48566U 21041P   22115.86108991 -.00001071  00000-0 -53023-4 0  9998","OBJECT_NAME":"STARLINK-2214","MEAN_ANOMALY":"283.6079","CENTER_NAME":"EARTH","MEAN_MOTION_DOT":"-0.00001071","TIME_SYSTEM":"UTC","DECAY_DATE":null,"APOAPSIS":"548.254","MEAN_MOTION":"15.06383942","SITE":"AFETR","FILE":"3416090","CLASSIFICATION_TYPE":"U","OBJECT_TYPE":"PAYLOAD","EPHEMERIS_TYPE":"0","COUNTRY_CODE":"US","MEAN_ELEMENT_THEORY":"SGP4","MEAN_MOTION_DDOT":"0.0000000000000","LAUNCH_DATE":"2021-05-15","BSTAR":"-0.00005302300000","EPOCH":"2022-04-25T20:39:58.168224","ECCENTRICITY":"0.00014310","ELEMENT_SET_NO":"999","PERIOD":"95.593","REF_FRAME":"TEME","ARG_OF_PERICENTER":"76.5069","INCLINATION":"53.0553","NORAD_CAT_ID":"48566","OBJECT_ID":"2021-041P","SEMIMAJOR_AXIS":"6925.398","REV_AT_EPOCH":"5196"},{"PERIOD":"95.593","INCLINATION":"53.0562","ARG_OF_PERICENTER":"75.2408","REF_FRAME":"TEME","NORAD_CAT_ID":"48567","OBJECT_ID":"2021-041Q","SEMIMAJOR_AXIS":"6925.383","REV_AT_EPOCH":"5195","COUNTRY_CODE":"US","MEAN_ELEMENT_THEORY":"SGP4","MEAN_MOTION_DDOT":"0.0000000000000","LAUNCH_DATE":"2021-05-15","BSTAR":"0.00010311000000","EPOCH":"2022-04-25T19:21:42.686784","ECCENTRICITY":"0.00015540","ELEMENT_SET_NO":"999","APOAPSIS":"548.324","MEAN_MOTION":"15.06388713","CLASSIFICATION_TYPE":"U","FILE":"3416090","SITE":"AFETR","OBJECT_TYPE":"PAYLOAD","EPHEMERIS_TYPE":"0","PERIAPSIS":"546.172","RA_OF_ASC_NODE":"8.7861","TLE_LINE2":"2 48567  53.0562   8.7861 0001554  75.2408 284.8753 15.06388713 51953","GP_ID":"202027952","RCS_SIZE":"LARGE","TLE_LINE1":"1 48567U 21041Q   22115.80674406  .00001254  00000-0  10311-3 0  9995","MEAN_ANOMALY":"284.8753","OBJECT_NAME":"STARLINK-2215","MEAN_MOTION_DOT":"0.00001254","TIME_SYSTEM":"UTC","CENTER_NAME":"EARTH","DECAY_DATE":null},{"PERIOD":"95.593","INCLINATION":"53.0572","ARG_OF_PERICENTER":"85.0091","REF_FRAME":"TEME","OBJECT_ID":"2021-041R","NORAD_CAT_ID":"48568","REV_AT_EPOCH":"5209","SEMIMAJOR_AXIS":"6925.377","MEAN_ELEMENT_THEORY":"SGP4","COUNTRY_CODE":"US","MEAN_MOTION_DDOT":"0.0000000000000","EPOCH":"2022-04-25T19:38:57.427872","LAUNCH_DATE":"2021-05-15","BSTAR":"0.00014172000000","ELEMENT_SET_NO":"999","ECCENTRICITY":"0.00013190","APOAPSIS":"548.156","CLASSIFICATION_TYPE":"U","SITE":"AFETR","FILE":"3416090","MEAN_MOTION":"15.06390640","EPHEMERIS_TYPE":"0","OBJECT_TYPE":"PAYLOAD","GP_ID":"202026205","TLE_LINE2":"2 48568  53.0572 358.7375 0001319  85.0091 275.1049 15.06390640 52098","PERIAPSIS":"546.329","RA_OF_ASC_NODE":"358.7375","RCS_SIZE":"LARGE","MEAN_ANOMALY":"275.1049","OBJECT_NAME":"STARLINK-2217","TLE_LINE1":"1 48568U 21041R   22115.81872023  .00001830  00000-0  14172-3 0  9991","DECAY_DATE":null,"TIME_SYSTEM":"UTC","MEAN_MOTION_DOT":"0.00001830","CENTER_NAME":"EARTH"},{"RCS_SIZE":"LARGE","TLE_LINE2":"2 48569  53.0542 358.9291 0001411  72.2553 287.8590 15.06385894 52095","GP_ID":"202026455","RA_OF_ASC_NODE":"358.9291","PERIAPSIS":"546.280","DECAY_DATE":null,"CENTER_NAME":"EARTH","TIME_SYSTEM":"UTC","MEAN_MOTION_DOT":"-0.00000940","OBJECT_NAME":"STARLINK-2219","MEAN_ANOMALY":"287.8590","TLE_LINE1":"1 48569U 21041S   22115.77818294 -.00000940  00000-0 -44212-4 0  9999","SITE":"AFETR","FILE":"3416090","CLASSIFICATION_TYPE":"U","MEAN_MOTION":"15.06385894","APOAPSIS":"548.234","EPHEMERIS_TYPE":"0","OBJECT_TYPE":"PAYLOAD","MEAN_MOTION_DDOT":"0.0000000000000","MEAN_ELEMENT_THEORY":"SGP4","COUNTRY_CODE":"US","ELEMENT_SET_NO":"999","ECCENTRICITY":"0.00014110","EPOCH":"2022-04-25T18:40:35.006016","LAUNCH_DATE":"2021-05-15","BSTAR":"-0.00004421200000","REF_FRAME":"TEME","INCLINATION":"53.0542","ARG_OF_PERICENTER":"72.2553","PERIOD":"95.593","REV_AT_EPOCH":"5209","SEMIMAJOR_AXIS":"6925.392","OBJECT_ID":"2021-041S","NORAD_CAT_ID":"48569"},{"COUNTRY_CODE":"US","MEAN_ELEMENT_THEORY":"SGP4","MEAN_MOTION_DDOT":"0.0000000000000","BSTAR":"0.00026442000000","LAUNCH_DATE":"2021-05-15","EPOCH":"2022-04-25T19:58:51.564864","ECCENTRICITY":"0.00013130","ELEMENT_SET_NO":"999","PERIOD":"95.592","REF_FRAME":"TEME","ARG_OF_PERICENTER":"67.3505","INCLINATION":"53.0563","NORAD_CAT_ID":"48570","OBJECT_ID":"2021-041T","SEMIMAJOR_AXIS":"6925.331","REV_AT_EPOCH":"5195","RA_OF_ASC_NODE":"8.6655","PERIAPSIS":"546.287","TLE_LINE2":"2 48570  53.0563   8.6655 0001313  67.3505 292.7623 15.06405637 51950","GP_ID":"202027202","RCS_SIZE":"LARGE","TLE_LINE1":"1 48570U 21041T   22115.83254126  .00003660  00000-0  26442-3 0  9990","OBJECT_NAME":"STARLINK-2220","MEAN_ANOMALY":"292.7623","CENTER_NAME":"EARTH","MEAN_MOTION_DOT":"0.00003660","TIME_SYSTEM":"UTC","DECAY_DATE":null,"APOAPSIS":"548.106","MEAN_MOTION":"15.06405637","FILE":"3416090","SITE":"AFETR","CLASSIFICATION_TYPE":"U","OBJECT_TYPE":"PAYLOAD","EPHEMERIS_TYPE":"0"},{"OBJECT_ID":"2021-041U","NORAD_CAT_ID":"48571","REV_AT_EPOCH":"5190","SEMIMAJOR_AXIS":"6925.374","PERIOD":"95.593","REF_FRAME":"TEME","INCLINATION":"53.0555","ARG_OF_PERICENTER":"73.7978","EPOCH":"2022-04-25T10:36:14.068800","BSTAR":"-0.00002779600000","LAUNCH_DATE":"2021-05-15","ELEMENT_SET_NO":"999","ECCENTRICITY":"0.00016460","MEAN_ELEMENT_THEORY":"SGP4","COUNTRY_CODE":"US","MEAN_MOTION_DDOT":"0.0000000000000","EPHEMERIS_TYPE":"0","OBJECT_TYPE":"PAYLOAD","APOAPSIS":"548.379","FILE":"3415659","SITE":"AFETR","CLASSIFICATION_TYPE":"U","MEAN_MOTION":"15.06391569","MEAN_ANOMALY":"286.3192","OBJECT_NAME":"STARLINK-2221","TLE_LINE1":"1 48571U 21041U   22115.44182950 -.00000695  00000-0 -27796-4 0  9994","DECAY_DATE":null,"CENTER_NAME":"EARTH","TIME_SYSTEM":"UTC","MEAN_MOTION_DOT":"-0.00000695","TLE_LINE2":"2 48571  53.0555  10.4343 0001646  73.7978 286.3192 15.06391569 51904","GP_ID":"201992978","RA_OF_ASC_NODE":"10.4343","PERIAPSIS":"546.099","RCS_SIZE":"LARGE"}];
